[{"OBJECT_NAME":"NISAR","OBJECT_ID":"2025-163A","EPOCH":"2026-03-09T23:23:00.539520","MEAN_MOTION":14.42502005,"ECCENTRICITY":0.00012255,"INCLINATION":98.4063,"RA_OF_ASC_NODE":258.0769,"ARG_OF_PERICENTER":90.8877,"MEAN_ANOMALY":269.2453,"EPHEMERIS_TYPE":0,"CLASSIFICATION_TYPE":"U","NORAD_CAT_ID":65053,"ELEMENT_SET_NO":999,"REV_AT_EPOCH":3208,"BSTAR":7.226955e-6,"MEAN_MOTION_DOT":-2.0e-7,"MEAN_MOTION_DDOT":0},{"OBJECT_NAME":"THOR ABLESTAR DEB","OBJECT_ID":"1961-015CG","EPOCH":"2026-03-09T11:28:30.659232","MEAN_MOTION":14.43974302,"ECCENTRICITY":0.00445512,"INCLINATION":66.7664,"RA_OF_ASC_NODE":107.1809,"ARG_OF_PERICENTER":203.463,"MEAN_ANOMALY":156.4444,"EPHEMERIS_TYPE":0,"CLASSIFICATION_TYPE":"U","NORAD_CAT_ID":260,"ELEMENT_SET_NO":999,"REV_AT_EPOCH":34194,"BSTAR":0.00065479023,"MEAN_MOTION_DOT":2.179e-5,"MEAN_MOTION_DDOT":0}]
